[{"OBJECT_NAME":"STARLINK-32741","OBJECT_ID":"2025-004R","EPOCH":"2026-03-17T14:01:17.105664","MEAN_MOTION":15.27589126,"ECCENTRICITY":0.00016201,"INCLINATION":43.0059,"RA_OF_ASC_NODE":172.0266,"ARG_OF_PERICENTER":262.013,"MEAN_ANOMALY":98.0538,"EPHEMERIS_TYPE":0,"CLASSIFICATION_TYPE":"U","NORAD_CAT_ID":62526,"ELEMENT_SET_NO":999,"REV_AT_EPOCH":6770,"BSTAR":0.00073579858,"MEAN_MOTION_DOT":0.00020046,"MEAN_MOTION_DDOT":0},{"OBJECT_NAME":"STARLINK-32754","OBJECT_ID":"2025-004S","EPOCH":"2026-03-17T15:16:14.743200","MEAN_MOTION":15.27601671,"ECCENTRICITY":0.00013719,"INCLINATION":43.0014,"RA_OF_ASC_NODE":175.0192,"ARG_OF_PERICENTER":283.5117,"MEAN_ANOMALY":76.5582,"EPHEMERIS_TYPE":0,"CLASSIFICATION_TYPE":"U","NORAD_CAT_ID":62527,"ELEMENT_SET_NO":999,"REV_AT_EPOCH":6672,"BSTAR":0.00095603309,"MEAN_MOTION_DOT":0.00026157,"MEAN_MOTION_DDOT":0},{"OBJECT_NAME":"STARLINK-32786","OBJECT_ID":"2025-004T","EPOCH":"2026-03-17T14:28:08.399136","MEAN_MOTION":15.27580353,"ECCENTRICITY":0.000155,"INCLINATION":43.0019,"RA_OF_ASC_NODE":174.7721,"ARG_OF_PERICENTER":277.1923,"MEAN_ANOMALY":82.8753,"EPHEMERIS_TYPE":0,"CLASSIFICATION_TYPE":"U","NORAD_CAT_ID":62528,"ELEMENT_SET_NO":999,"REV_AT_EPOCH":6672,"BSTAR":0.00088752204,"MEAN_MOTION_DOT":0.00024241,"MEAN_MOTION_DDOT":0},{"OBJECT_NAME":"STARLINK-32789","OBJECT_ID":"2025-004U","EPOCH":"2026-03-17T13:51:20.204352","MEAN_MOTION":15.275639,"ECCENTRICITY":7.862e-5,"INCLINATION":43.0044,"RA_OF_ASC_NODE":175.4323,"ARG_OF_PERICENTER":319.7352,"MEAN_ANOMALY":40.3442,"EPHEMERIS_TYPE":0,"CLASSIFICATION_TYPE":"U","NORAD_CAT_ID":62529,"ELEMENT_SET_NO":999,"REV_AT_EPOCH":6766,"BSTAR":0.00071344861,"MEAN_MOTION_DOT":0.00019412,"MEAN_MOTION_DDOT":0},{"OBJECT_NAME":"STARLINK-32791","OBJECT_ID":"2025-004V","EPOCH":"2026-03-17T15:05:08.979360","MEAN_MOTION":15.27585345,"ECCENTRICITY":8.327e-5,"INCLINATION":43.0007,"RA_OF_ASC_NODE":174.9536,"ARG_OF_PERICENTER":286.0164,"MEAN_ANOMALY":74.0596,"EPHEMERIS_TYPE":0,"CLASSIFICATION_TYPE":"U","NORAD_CAT_ID":62530,"ELEMENT_SET_NO":999,"REV_AT_EPOCH":6767,"BSTAR":0.00068322129,"MEAN_MOTION_DOT":0.00018589,"MEAN_MOTION_DDOT":0},{"OBJECT_NAME":"STARLINK-32785","OBJECT_ID":"2025-004W","EPOCH":"2026-03-16T00:22:41.103264","MEAN_MOTION":15.27525881,"ECCENTRICITY":7.374e-5,"INCLINATION":43.0027,"RA_OF_ASC_NODE":184.3609,"ARG_OF_PERICENTER":255.5436,"MEAN_ANOMALY":104.5334,"EPHEMERIS_TYPE":0,"CLASSIFICATION_TYPE":"U","NORAD_CAT_ID":62531,"ELEMENT_SET_NO":999,"REV_AT_EPOCH":6742,"BSTAR":0.0014842863,"MEAN_MOTION_DOT":0.0004074,"MEAN_MOTION_DDOT":0},{"OBJECT_NAME":"STARLINK-11538 [DTC]","OBJECT_ID":"2025-006A","EPOCH":"2026-03-16T12:56:03.141600","MEAN_MOTION":15.70986118,"ECCENTRICITY":0.00022266,"INCLINATION":43.0008,"RA_OF_ASC_NODE":98.2488,"ARG_OF_PERICENTER":236.4074,"MEAN_ANOMALY":123.6582,"EPHEMERIS_TYPE":0,"CLASSIFICATION_TYPE":"U","NORAD_CAT_ID":62554,"ELEMENT_SET_NO":999,"REV_AT_EPOCH":6768,"BSTAR":0.0014176636,"MEAN_MOTION_DOT":0.00186751,"MEAN_MOTION_DDOT":0},{"OBJECT_NAME":"STARLINK-11534 [DTC]","OBJECT_ID":"2025-006B","EPOCH":"2026-03-17T18:03:20.659680","MEAN_MOTION":15.70900628,"ECCENTRICITY":4.7e-5,"INCLINATION":42.9976,"RA_OF_ASC_NODE":91.0112,"ARG_OF_PERICENTER":92.3163,"MEAN_ANOMALY":267.7758,"EPHEMERIS_TYPE":0,"CLASSIFICATION_TYPE":"U","NORAD_CAT_ID":62555,"ELEMENT_SET_NO":999,"REV_AT_EPOCH":6787,"BSTAR":0.0016083,"MEAN_MOTION_DOT":0.0021181,"MEAN_MOTION_DDOT":0},{"OBJECT_NAME":"STARLINK-11515 [DTC]","OBJECT_ID":"2025-006C","EPOCH":"2026-03-17T08:23:34.823904","MEAN_MOTION":15.70933457,"ECCENTRICITY":7.712e-5,"INCLINATION":43.0004,"RA_OF_ASC_NODE":94.0357,"ARG_OF_PERICENTER":144.9207,"MEAN_ANOMALY":215.1712,"EPHEMERIS_TYPE":0,"CLASSIFICATION_TYPE":"U","NORAD_CAT_ID":62556,"ELEMENT_SET_NO":999,"REV_AT_EPOCH":6780,"BSTAR":0.0011904639,"MEAN_MOTION_DOT":0.0015581,"MEAN_MOTION_DDOT":0},{"OBJECT_NAME":"STARLINK-11478 [DTC]","OBJECT_ID":"2025-006D","EPOCH":"2026-03-17T12:27:40.240800","MEAN_MOTION":15.7089582,"ECCENTRICITY":0.00024213,"INCLINATION":43.0021,"RA_OF_ASC_NODE":92.7142,"ARG_OF_PERICENTER":264.7274,"MEAN_ANOMALY":95.3318,"EPHEMERIS_TYPE":0,"CLASSIFICATION_TYPE":"U","NORAD_CAT_ID":62557,"ELEMENT_SET_NO":999,"REV_AT_EPOCH":6783,"BSTAR":0.0013424359,"MEAN_MOTION_DOT":0.00175918,"MEAN_MOTION_DDOT":0},{"OBJECT_NAME":"STARLINK-11358 [DTC]","OBJECT_ID":"2025-006E","EPOCH":"2026-03-17T07:45:21.169152","MEAN_MOTION":15.71082691,"ECCENTRICITY":0.0003597,"INCLINATION":42.9999,"RA_OF_ASC_NODE":93.8205,"ARG_OF_PERICENTER":263.713,"MEAN_ANOMALY":96.3328,"EPHEMERIS_TYPE":0,"CLASSIFICATION_TYPE":"U","NORAD_CAT_ID":62558,"ELEMENT_SET_NO":999,"REV_AT_EPOCH":6780,"BSTAR":0.0019739323,"MEAN_MOTION_DOT":0.00263746,"MEAN_MOTION_DDOT":0},{"OBJECT_NAME":"STARLINK-11517 [DTC]","OBJECT_ID":"2025-006F","EPOCH":"2026-03-17T09:32:11.821920","MEAN_MOTION":15.70913259,"ECCENTRICITY":0.00025546,"INCLINATION":42.9985,"RA_OF_ASC_NODE":93.5229,"ARG_OF_PERICENTER":265.8331,"MEAN_ANOMALY":94.2244,"EPHEMERIS_TYPE":0,"CLASSIFICATION_TYPE":"U","NORAD_CAT_ID":62559,"ELEMENT_SET_NO":999,"REV_AT_EPOCH":6781,"BSTAR":0.0012220123,"MEAN_MOTION_DOT":0.00159907,"MEAN_MOTION_DDOT":0},{"OBJECT_NAME":"STARLINK-11519 [DTC]","OBJECT_ID":"2025-006G","EPOCH":"2026-03-17T17:41:55.058784","MEAN_MOTION":15.70998274,"ECCENTRICITY":0.0001175,"INCLINATION":43.0026,"RA_OF_ASC_NODE":91.7838,"ARG_OF_PERICENTER":325.5762,"MEAN_ANOMALY":34.5029,"EPHEMERIS_TYPE":0,"CLASSIFICATION_TYPE":"U","NORAD_CAT_ID":62560,"ELEMENT_SET_NO":999,"REV_AT_EPOCH":6786,"BSTAR":0.001252,"MEAN_MOTION_DOT":0.00164507,"MEAN_MOTION_DDOT":0},{"OBJECT_NAME":"STARLINK-11451 [DTC]","OBJECT_ID":"2025-006H","EPOCH":"2026-03-17T18:10:59.335680","MEAN_MOTION":15.70870116,"ECCENTRICITY":2.73e-5,"INCLINATION":42.9987,"RA_OF_ASC_NODE":91.0517,"ARG_OF_PERICENTER":91.3102,"MEAN_ANOMALY":268.7797,"EPHEMERIS_TYPE":0,"CLASSIFICATION_TYPE":"U","NORAD_CAT_ID":62561,"ELEMENT_SET_NO":999,"REV_AT_EPOCH":6787,"BSTAR":0.0016404,"MEAN_MOTION_DOT":0.00215874,"MEAN_MOTION_DDOT":0},{"OBJECT_NAME":"STARLINK-11530 [DTC]","OBJECT_ID":"2025-006J","EPOCH":"2026-03-17T17:40:35.359968","MEAN_MOTION":15.70876068,"ECCENTRICITY":8.45e-5,"INCLINATION":42.9995,"RA_OF_ASC_NODE":91.775,"ARG_OF_PERICENTER":342.142,"MEAN_ANOMALY":17.9418,"EPHEMERIS_TYPE":0,"CLASSIFICATION_TYPE":"U","NORAD_CAT_ID":62562,"ELEMENT_SET_NO":999,"REV_AT_EPOCH":6786,"BSTAR":0.0011342,"MEAN_MOTION_DOT":0.00147926,"MEAN_MOTION_DDOT":0},{"OBJECT_NAME":"STARLINK-11536 [DTC]","OBJECT_ID":"2025-006K","EPOCH":"2026-03-16T17:53:41.127360","MEAN_MOTION":15.70888724,"ECCENTRICITY":0.00019659,"INCLINATION":42.9995,"RA_OF_ASC_NODE":97.2251,"ARG_OF_PERICENTER":27.8676,"MEAN_ANOMALY":332.2296,"EPHEMERIS_TYPE":0,"CLASSIFICATION_TYPE":"U","NORAD_CAT_ID":62563,"ELEMENT_SET_NO":999,"REV_AT_EPOCH":6771,"BSTAR":0.0017557416,"MEAN_MOTION_DOT":0.00231705,"MEAN_MOTION_DDOT":0},{"OBJECT_NAME":"STARLINK-11540 [DTC]","OBJECT_ID":"2025-006L","EPOCH":"2026-03-17T09:39:50.358816","MEAN_MOTION":15.70931503,"ECCENTRICITY":0.00033514,"INCLINATION":42.9986,"RA_OF_ASC_NODE":93.5632,"ARG_OF_PERICENTER":253.4094,"MEAN_ANOMALY":106.6405,"EPHEMERIS_TYPE":0,"CLASSIFICATION_TYPE":"U","NORAD_CAT_ID":62564,"ELEMENT_SET_NO":999,"REV_AT_EPOCH":6781,"BSTAR":0.0015784133,"MEAN_MOTION_DOT":0.00208059,"MEAN_MOTION_DDOT":0},{"OBJECT_NAME":"STARLINK-11523 [DTC]","OBJECT_ID":"2025-006M","EPOCH":"2026-03-17T09:47:29.354496","MEAN_MOTION":15.70923375,"ECCENTRICITY":0.00027259,"INCLINATION":42.9996,"RA_OF_ASC_NODE":93.606,"ARG_OF_PERICENTER":270.2119,"MEAN_ANOMALY":89.8436,"EPHEMERIS_TYPE":0,"CLASSIFICATION_TYPE":"U","NORAD_CAT_ID":62565,"ELEMENT_SET_NO":999,"REV_AT_EPOCH":6781,"BSTAR":0.0013932905,"MEAN_MOTION_DOT":0.00182972,"MEAN_MOTION_DDOT":0},{"OBJECT_NAME":"STARLINK-11525 [DTC]","OBJECT_ID":"2025-006N","EPOCH":"2026-03-17T17:48:12.720960","MEAN_MOTION":15.70795469,"ECCENTRICITY":2.86e-5,"INCLINATION":43.0018,"RA_OF_ASC_NODE":91.8168,"ARG_OF_PERICENTER":98.3751,"MEAN_ANOMALY":261.7149,"EPHEMERIS_TYPE":0,"CLASSIFICATION_TYPE":"U","NORAD_CAT_ID":62566,"ELEMENT_SET_NO":999,"REV_AT_EPOCH":6786,"BSTAR":-0.00046111,"MEAN_MOTION_DOT":-0.0005908,"MEAN_MOTION_DDOT":0},{"OBJECT_NAME":"STARLINK-32752","OBJECT_ID":"2025-006P","EPOCH":"2026-03-17T11:36:25.387488","MEAN_MOTION":15.27587492,"ECCENTRICITY":0.00017825,"INCLINATION":42.9983,"RA_OF_ASC_NODE":248.6461,"ARG_OF_PERICENTER":265.9942,"MEAN_ANOMALY":94.0706,"EPHEMERIS_TYPE":0,"CLASSIFICATION_TYPE":"U","NORAD_CAT_ID":62567,"ELEMENT_SET_NO":999,"REV_AT_EPOCH":6605,"BSTAR":0.00071713702,"MEAN_MOTION_DOT":0.00019529,"MEAN_MOTION_DDOT":0},{"OBJECT_NAME":"STARLINK-32760","OBJECT_ID":"2025-006Q","EPOCH":"2026-03-17T19:34:35.947776","MEAN_MOTION":15.27594456,"ECCENTRICITY":0.0002589,"INCLINATION":42.9999,"RA_OF_ASC_NODE":246.8248,"ARG_OF_PERICENTER":259.9687,"MEAN_ANOMALY":100.0872,"EPHEMERIS_TYPE":0,"CLASSIFICATION_TYPE":"U","NORAD_CAT_ID":62568,"ELEMENT_SET_NO":999,"REV_AT_EPOCH":6610,"BSTAR":0.00082477,"MEAN_MOTION_DOT":0.00022514,"MEAN_MOTION_DDOT":0},{"OBJECT_NAME":"STARLINK-32715","OBJECT_ID":"2025-006R","EPOCH":"2026-03-17T19:47:32.038368","MEAN_MOTION":15.27576959,"ECCENTRICITY":0.0002422,"INCLINATION":42.9996,"RA_OF_ASC_NODE":246.9039,"ARG_OF_PERICENTER":280.8218,"MEAN_ANOMALY":79.2361,"EPHEMERIS_TYPE":0,"CLASSIFICATION_TYPE":"U","NORAD_CAT_ID":62569,"ELEMENT_SET_NO":999,"REV_AT_EPOCH":6610,"BSTAR":0.00054123,"MEAN_MOTION_DOT":0.0001466,"MEAN_MOTION_DDOT":0},{"OBJECT_NAME":"STARLINK-32764","OBJECT_ID":"2025-006S","EPOCH":"2026-03-17T18:24:30.045024","MEAN_MOTION":15.27598169,"ECCENTRICITY":0.0001834,"INCLINATION":42.9968,"RA_OF_ASC_NODE":247.3253,"ARG_OF_PERICENTER":275.9702,"MEAN_ANOMALY":84.094,"EPHEMERIS_TYPE":0,"CLASSIFICATION_TYPE":"U","NORAD_CAT_ID":62570,"ELEMENT_SET_NO":999,"REV_AT_EPOCH":6609,"BSTAR":0.00059396,"MEAN_MOTION_DOT":0.00016127,"MEAN_MOTION_DDOT":0}]
